[{"OBJECT_NAME":"STARLINK-4799","OBJECT_ID":"2022-114AU","EPOCH":"2026-03-09T21:52:01.324416","MEAN_MOTION":15.08842971,"ECCENTRICITY":0.00014403,"INCLINATION":53.2178,"RA_OF_ASC_NODE":283.2431,"ARG_OF_PERICENTER":90.016,"MEAN_ANOMALY":270.0997,"EPHEMERIS_TYPE":0,"CLASSIFICATION_TYPE":"U","NORAD_CAT_ID":53860,"ELEMENT_SET_NO":999,"REV_AT_EPOCH":19290,"BSTAR":-3.5512019e-5,"MEAN_MOTION_DOT":-8.53e-6,"MEAN_MOTION_DDOT":0},{"OBJECT_NAME":"CZ-6A DEB","OBJECT_ID":"2024-140FV","EPOCH":"2026-03-09T14:13:09.917760","MEAN_MOTION":15.12617909,"ECCENTRICITY":0.0033796,"INCLINATION":89.006,"RA_OF_ASC_NODE":281.0752,"ARG_OF_PERICENTER":172.4402,"MEAN_ANOMALY":187.7356,"EPHEMERIS_TYPE":0,"CLASSIFICATION_TYPE":"U","NORAD_CAT_ID":60794,"ELEMENT_SET_NO":999,"REV_AT_EPOCH":8371,"BSTAR":0.0056743,"MEAN_MOTION_DOT":0.0010168,"MEAN_MOTION_DDOT":0}]
